NORAD_CAT_ID,OBJECT_NAME,OBJECT_TYPE,EPOCH,MEAN_MOTION,ECCENTRICITY,INCLINATION,RA_OF_ASC_NODE,ARG_OF_PERICENTER,MEAN_ANOMALY,BSTAR,MEAN_MOTION_DOT,MEAN_MOTION_DDOT,TLE_LINE0,TLE_LINE1,TLE_LINE2,SEMIMAJOR_AXIS,PERIOD,APOGEE,PERIGEE,DECAYED
55273.0,STARLINK-5291,PAYLOAD,2024-07-15 05:00:20,14.98338791,0.0002808,70.0008,123.3868,270.254,89.8297,4.9106e-05,4.93e-06,0.0,0 STARLINK-5291,1 55273U 23010E   24197.20857421  .00000493  00000-0  49106-4 0  9990,2 55273  70.0008 123.3868 0002808 270.2540  89.8297 14.98338791 82239,6950.166,96.106,573.982,570.079,0.0
55273.0,STARLINK-5291,PAYLOAD,2024-07-15 13:01:01,14.98333315,0.0002799,70.0006,122.5452,271.4727,88.6112,-2.5307e-05,-3.95e-06,0.0,0 STARLINK-5291,1 55273U 23010E   24197.54237885 -.00000395  00000-0 -25307-4 0  9993,2 55273  70.0006 122.5452 0002799 271.4727  88.6112 14.98333315 82281,6950.183,96.107,573.993,570.102,0.0
55273.0,STARLINK-5291,PAYLOAD,2024-07-15 22:37:50,14.98327285,0.000266,70.0006,121.5354,263.6252,96.4604,-1.3563e-05,-2.55e-06,0.0,0 STARLINK-5291,1 55273U 23010E   24197.94294238 -.00000255  00000-0 -13563-4 0  9998,2 55273  70.0006 121.5354 0002660 263.6252  96.4604 14.98327285 82657,6950.201,96.107,573.915,570.218,0.0
55273.0,STARLINK-5291,PAYLOAD,2024-07-16 05:02:21,14.98333822,0.0002777,70.0005,120.8628,266.3733,93.7109,4.9738e-05,5.01e-06,0.0,0 STARLINK-5291,1 55273U 23010E   24198.20997641  .00000501  00000-0  49738-4 0  9991,2 55273  70.0005 120.8628 0002777 266.3733  93.7109 14.98333822 82693,6950.181,96.107,573.976,570.116,0.0
55273.0,STARLINK-5291,PAYLOAD,2024-07-16 21:03:42,14.98333825,0.0002803,70.0008,119.1798,270.0502,90.0335,6.4064e-05,6.72e-06,0.0,0 STARLINK-5291,1 55273U 23010E   24198.87757452  .00000672  00000-0  64064-4 0  9996,2 55273  70.0008 119.1798 0002803 270.0502  90.0335 14.98333825 82482,6950.181,96.107,573.994,570.098,0.0
55273.0,STARLINK-5291,PAYLOAD,2024-07-16 22:39:50,14.98334389,0.0002793,70.0007,119.0114,269.7184,90.3655,5.2344e-05,5.32e-06,0.0,0 STARLINK-5291,1 55273U 23010E   24198.94433434  .00000532  00000-0  52344-4 0  9998,2 55273  70.0007 119.0114 0002793 269.7184  90.3655 14.98334389 82801,6950.179,96.107,573.986,570.103,0.0
55273.0,STARLINK-5291,PAYLOAD,2024-07-17 05:04:21,14.98343944,0.0002652,70.0012,118.3403,263.9121,96.1736,0.00010704,1.185e-05,0.0,0 STARLINK-5291,1 55273U 23010E   24199.21136552  .00001185  00000-0  10704-3 0  9998,2 55273  70.0012 118.3403 0002652 263.9121  96.1736 14.98343944 82532,6950.15,96.106,573.858,570.172,0.0
55273.0,STARLINK-5291,PAYLOAD,2024-07-17 11:28:55,14.98330197,0.000285,70.001,117.6642,271.7077,88.3756,-3.5024e-05,-5.11e-06,0.0,0 STARLINK-5291,1 55273U 23010E   24199.47841752 -.00000511  00000-0 -35024-4 0  9998,2 55273  70.0010 117.6642 0002850 271.7077  88.3756 14.98330197 82579,6950.192,96.107,574.038,570.076,0.0
55273.0,STARLINK-5291,PAYLOAD,2024-07-17 22:41:52,14.98322782,0.0002541,70.0009,116.4869,270.4753,89.6115,-2.4144e-05,-3.81e-06,0.0,0 STARLINK-5291,1 55273U 23010E   24199.94574431 -.00000381  00000-0 -24144-4 0  9993,2 55273  70.0009 116.4869 0002541 270.4753  89.6115 14.98322782 82955,6950.215,96.107,573.846,570.314,0.0
55273.0,STARLINK-5291,PAYLOAD,2024-07-18 11:30:56,14.98326579,0.0002515,70.0015,115.1411,263.8216,96.2657,-2.2601e-05,-3.63e-06,0.0,0 STARLINK-5291,1 55273U 23010E   24200.47982276 -.00000363  00000-0 -22601-4 0  9990,2 55273  70.0015 115.1411 0002515 263.8216  96.2657 14.98326579 82720,6950.203,96.107,573.816,570.32,0.0
55273.0,STARLINK-5291,PAYLOAD,2024-07-18 22:43:52,14.98330334,0.000257,70.0013,113.9635,257.3583,102.7289,-4.1764e-05,-5.91e-06,0.0,0 STARLINK-5291,1 55273U 23010E   24200.94714086 -.00000591  00000-0 -41764-4 0  9998,2 55273  70.0013 113.9635 0002570 257.3583 102.7289 14.98330334 83109,6950.192,96.107,573.843,570.271,0.0
55273.0,STARLINK-5291,PAYLOAD,2024-07-19 03:32:16,14.98333687,0.0002588,70.0013,113.4587,257.2439,102.8431,-9.6688e-06,-2.08e-06,0.0,0 STARLINK-5291,1 55273U 23010E   24201.14741796 -.00000208  00000-0 -96688-5 0  9990,2 55273  70.0013 113.4587 0002588 257.2439 102.8431 14.98333687 82820,6950.181,96.107,573.845,570.248,0.0
55273.0,STARLINK-5291,PAYLOAD,2024-07-19 11:32:57,14.98330586,0.0002668,70.001,112.6146,268.0979,91.9874,1.2865e-05,6.1e-07,0.0,0 STARLINK-5291,1 55273U 23010E   24201.48121910  .00000061  00000-0  12865-4 0  9996,2 55273  70.0010 112.6146 0002668 268.0979  91.9874 14.98330586 83181,6950.191,96.107,573.91,570.202,0.0
55273.0,STARLINK-5291,PAYLOAD,2024-07-19 21:09:46,14.98318992,0.0002968,70.0007,111.6051,271.2606,88.8213,0.00014144,1.595e-05,0.0,0 STARLINK-5291,1 55273U 23010E   24201.88178419  .00001595  00000-0  14144-3 0  9990,2 55273  70.0007 111.6051 0002968 271.2606  88.8213 14.98318992 82938,6950.227,96.108,574.155,570.029,0.0
55273.0,STARLINK-5291,PAYLOAD,2024-07-19 22:45:54,14.98320237,0.0002902,70.0007,111.4368,271.6535,88.4292,0.00012684,1.42e-05,0.0,0 STARLINK-5291,1 55273U 23010E   24201.94854435  .00001420  00000-0  12684-3 0  9990,2 55273  70.0007 111.4368 0002902 271.6535  88.4292 14.98320237 83254,6950.223,96.108,574.105,570.071,0.0
55273.0,STARLINK-5291,PAYLOAD,2024-07-20 03:34:17,14.98329563,0.0002864,70.0007,110.9334,266.6492,93.4339,0.0001287,1.443e-05,0.0,0 STARLINK-5291,1 55273U 23010E   24202.14881855  .00001443  00000-0  12870-3 0  9991,2 55273  70.0007 110.9334 0002864 266.6492  93.4339 14.98329563 82971,6950.194,96.107,574.05,570.069,0.0
55273.0,STARLINK-5291,PAYLOAD,2024-07-20 11:34:58,14.9833144,0.0003079,70.0001,110.0896,270.1962,89.8844,8.9535e-05,9.75e-06,0.0,0 STARLINK-5291,1 55273U 23010E   24202.48261812  .00000975  00000-0  89535-4 0  9995,2 55273  70.0001 110.0896 0003079 270.1962  89.8844 14.98331440 83338,6950.188,96.107,574.193,569.913,0.0
55273.0,STARLINK-5291,PAYLOAD,2024-07-20 21:11:47,14.98325434,0.0003004,70.0,109.08,268.9729,91.1086,7.2818e-05,7.76e-06,0.0,0 STARLINK-5291,1 55273U 23010E   24202.88318348  .00000776  00000-0  72818-4 0  9991,2 55273  70.0000 109.0800 0003004 268.9729  91.1086 14.98325434 83086,6950.207,96.107,574.16,569.984,0.0
55273.0,STARLINK-5291,PAYLOAD,2024-07-20 22:47:55,14.98327195,0.0002865,70.0005,108.913,266.9737,93.1095,7.5228e-05,8.05e-06,0.0,0 STARLINK-5291,1 55273U 23010E   24202.94994246  .00000805  00000-0  75228-4 0  9996,2 55273  70.0005 108.9130 0002865 266.9737  93.1095 14.98327195 83400,6950.202,96.107,574.058,570.075,0.0
55273.0,STARLINK-5291,PAYLOAD,2024-07-21 03:36:18,14.98333237,0.0002751,70.0009,108.4092,264.0032,96.0813,0.00010975,1.217e-05,0.0,0 STARLINK-5291,1 55273U 23010E   24203.15021745  .00001217  00000-0  10975-3 0  9990,2 55273  70.0009 108.4092 0002751 264.0032  96.0813 14.98333237 83120,6950.183,96.107,573.96,570.136,0.0
55273.0,STARLINK-5291,PAYLOAD,2024-07-21 21:13:48,14.98326135,0.000284,70.001,106.555,270.7438,89.3396,5.6952e-05,5.87e-06,0.0,0 STARLINK-5291,1 55273U 23010E   24203.88458341  .00000587  00000-0  56952-4 0  9991,2 55273  70.0010 106.5550 0002840 270.7438  89.3396 14.98326135 83235,6950.205,96.107,574.044,570.096,0.0
55273.0,STARLINK-5291,PAYLOAD,2024-07-22 03:38:19,14.98333855,0.000276,70.0009,105.8817,268.2742,91.8101,9.3814e-05,1.027e-05,0.0,0 STARLINK-5291,1 55273U 23010E   24204.15161743  .00001027  00000-0  93814-4 0  9997,2 55273  70.0009 105.8817 0002760 268.2742  91.8101 14.98333855 83275,6950.181,96.107,573.964,570.128,0.0
55273.0,STARLINK-5291,PAYLOAD,2024-07-22 22:51:56,14.98329627,0.000291,70.0012,103.8635,270.7845,89.298,0.00013667,1.538e-05,0.0,0 STARLINK-5291,1 55273U 23010E   24204.95273706  .00001538  00000-0  13667-3 0  9992,2 55273  70.0012 103.8635 0002910 270.7845  89.2980 14.98329627 83700,6950.194,96.107,574.082,570.037,0.0
55273.0,STARLINK-5291,PAYLOAD,2024-07-23 03:40:20,14.98336482,0.0002493,70.0013,103.3577,267.9481,92.1392,0.0001628,1.85e-05,0.0,0 STARLINK-5291,1 55273U 23010E   24205.15301199  .00001850  00000-0  16280-3 0  9994,2 55273  70.0013 103.3577 0002493 267.9481  92.1392 14.98336482 83427,6950.173,96.107,573.771,570.305,0.0
55273.0,STARLINK-5291,PAYLOAD,2024-07-23 10:04:52,14.98337517,0.0002418,70.0019,102.6828,272.2308,87.8574,-7.7502e-05,-1.018e-05,0.0,0 STARLINK-5291,1 55273U 23010E   24205.42005564 -.00001018  00000-0 -77502-4 0  9994,2 55273  70.0019 102.6828 0002418 272.2308  87.8574 14.98337517 83779,6950.17,96.107,573.715,570.354,0.0
55273.0,STARLINK-5291,PAYLOAD,2024-07-23 22:53:58,14.98321752,0.0001635,70.0029,101.3383,250.0891,110.0092,6.2181e-05,6.49e-06,0.0,0 STARLINK-5291,1 55273U 23010E   24205.95414578  .00000649  00000-0  62181-4 0  9995,2 55273  70.0029 101.3383 0001635 250.0891 110.0092 14.98321752 83850,6950.218,96.108,573.22,570.947,0.0
55273.0,STARLINK-5291,PAYLOAD,2024-07-24 02:06:14,14.98302998,0.0002179,70.0024,101.0013,258.0655,102.026,0.00028036,3.251e-05,0.0,0 STARLINK-5291,1 55273U 23010E   24206.08767238  .00003251  00000-0  28036-3 0  9996,2 55273  70.0024 101.0013 0002179 258.0655 102.0260 14.98302998 83569,6950.276,96.109,573.656,570.627,0.0
55273.0,STARLINK-5291,PAYLOAD,2024-07-25 02:08:14,14.98337751,0.0002239,70.0012,98.4791,260.9977,99.0929,2.9402e-05,2.58e-06,0.0,0 STARLINK-5291,1 55273U 23010E   24207.08905504  .00000258  00000-0  29402-4 0  9990,2 55273  70.0012  98.4791 0002239 260.9977  99.0929 14.98337751 83713,6950.169,96.107,573.59,570.478,0.0
55273.0,STARLINK-5291,PAYLOAD,2024-07-25 16:33:28,14.98317364,0.0001585,70.0039,96.9592,274.0192,86.0786,2.2163e-05,1.72e-06,0.0,0 STARLINK-5291,1 55273U 23010E   24207.68991302  .00000172  00000-0  22163-4 0  9999,2 55273  70.0039  96.9592 0001585 274.0192  86.0786 14.98317364 83807,6950.232,96.108,573.199,570.995,0.0
55273.0,STARLINK-5291,PAYLOAD,2024-07-26 02:10:17,14.98312993,0.0003692,69.9986,95.9497,248.3879,111.6887,-0.0001176,-1.495e-05,0.0,0 STARLINK-5291,1 55273U 23010E   24208.09047670 -.00001495  00000-0 -11760-3 0  9996,2 55273  69.9986  95.9497 0003692 248.3879 111.6887 14.98312993 83861,6950.245,96.108,574.677,569.544,0.0
